CCSDS_OMM_VERS = 2.0
CREATION_DATE  = 
ORIGINATOR     = 

OBJECT_NAME    = STARLINK-36656
OBJECT_ID      = 2026-033W
CENTER_NAME    = EARTH
REF_FRAME      = TEME
TIME_SYSTEM    = UTC
MEAN_ELEMENT_THEORY = SGP/SGP4

EPOCH          = 2026-03-08T14:33:48.457440
MEAN_MOTION    = 15.82104424
ECCENTRICITY   = .00014692
INCLINATION    = 42.9974
RA_OF_ASC_NODE = 277.9575
ARG_OF_PERICENTER = 271.4432
MEAN_ANOMALY   = 88.6271

EPHEMERIS_TYPE = 0
CLASSIFICATION_TYPE = U
NORAD_CAT_ID   = 67841
ELEMENT_SET_NO = 999
REV_AT_EPOCH   = 445
BSTAR          = .20381069E-2
MEAN_MOTION_DOT = .453774E-2
MEAN_MOTION_DDOT = 0

CCSDS_OMM_VERS = 2.0
CREATION_DATE  = 
ORIGINATOR     = 

OBJECT_NAME    = STARLINK-36653
OBJECT_ID      = 2026-033X
CENTER_NAME    = EARTH
REF_FRAME      = TEME
TIME_SYSTEM    = UTC
MEAN_ELEMENT_THEORY = SGP/SGP4

EPOCH          = 2026-03-08T14:32:43.785312
MEAN_MOTION    = 15.82070622
ECCENTRICITY   = .00022268
INCLINATION    = 42.9977
RA_OF_ASC_NODE = 277.9507
ARG_OF_PERICENTER = 259.0808
MEAN_ANOMALY   = 100.9813

EPHEMERIS_TYPE = 0
CLASSIFICATION_TYPE = U
NORAD_CAT_ID   = 67842
ELEMENT_SET_NO = 999
REV_AT_EPOCH   = 445
BSTAR          = .10156488E-2
MEAN_MOTION_DOT = .2194E-2
MEAN_MOTION_DDOT = 0

CCSDS_OMM_VERS = 2.0
CREATION_DATE  = 
ORIGINATOR     = 

OBJECT_NAME    = STARLINK-36589
OBJECT_ID      = 2026-033Y
CENTER_NAME    = EARTH
REF_FRAME      = TEME
TIME_SYSTEM    = UTC
MEAN_ELEMENT_THEORY = SGP/SGP4

EPOCH          = 2026-03-08T14:31:38.866080
MEAN_MOTION    = 15.82131807
ECCENTRICITY   = .00020806
INCLINATION    = 42.9974
RA_OF_ASC_NODE = 277.9452
ARG_OF_PERICENTER = 280.3045
MEAN_ANOMALY   = 79.7592

EPHEMERIS_TYPE = 0
CLASSIFICATION_TYPE = U
NORAD_CAT_ID   = 67843
ELEMENT_SET_NO = 999
REV_AT_EPOCH   = 445
BSTAR          = .1527192E-2
MEAN_MOTION_DOT = .335636E-2
MEAN_MOTION_DDOT = 0

CCSDS_OMM_VERS = 2.0
CREATION_DATE  = 
ORIGINATOR     = 

OBJECT_NAME    = STARLINK-36598
OBJECT_ID      = 2026-033Z
CENTER_NAME    = EARTH
REF_FRAME      = TEME
TIME_SYSTEM    = UTC
MEAN_ELEMENT_THEORY = SGP/SGP4

EPOCH          = 2026-03-08T14:30:34.164576
MEAN_MOTION    = 15.82087642
ECCENTRICITY   = .00019389
INCLINATION    = 42.9978
RA_OF_ASC_NODE = 277.9386
ARG_OF_PERICENTER = 276.5483
MEAN_ANOMALY   = 83.5168

EPHEMERIS_TYPE = 0
CLASSIFICATION_TYPE = U
NORAD_CAT_ID   = 67844
ELEMENT_SET_NO = 999
REV_AT_EPOCH   = 445
BSTAR          = .13531183E-2
MEAN_MOTION_DOT = .295308E-2
MEAN_MOTION_DDOT = 0

CCSDS_OMM_VERS = 2.0
CREATION_DATE  = 
ORIGINATOR     = 

OBJECT_NAME    = STARLINK-36606
OBJECT_ID      = 2026-033AA
CENTER_NAME    = EARTH
REF_FRAME      = TEME
TIME_SYSTEM    = UTC
MEAN_ELEMENT_THEORY = SGP/SGP4

EPOCH          = 2026-03-08T14:29:29.587488
MEAN_MOTION    = 15.82098883
ECCENTRICITY   = .00022381
INCLINATION    = 42.9975
RA_OF_ASC_NODE = 277.9323
ARG_OF_PERICENTER = 292.8415
MEAN_ANOMALY   = 67.2220

EPHEMERIS_TYPE = 0
CLASSIFICATION_TYPE = U
NORAD_CAT_ID   = 67845
ELEMENT_SET_NO = 999
REV_AT_EPOCH   = 445
BSTAR          = .12788925E-2
MEAN_MOTION_DOT = .278689E-2
MEAN_MOTION_DDOT = 0

CCSDS_OMM_VERS = 2.0
CREATION_DATE  = 
ORIGINATOR     = 

OBJECT_NAME    = STARLINK-36658
OBJECT_ID      = 2026-033AB
CENTER_NAME    = EARTH
REF_FRAME      = TEME
TIME_SYSTEM    = UTC
MEAN_ELEMENT_THEORY = SGP/SGP4

EPOCH          = 2026-03-08T14:28:24.835008
MEAN_MOTION    = 15.82092766
ECCENTRICITY   = .0001955
INCLINATION    = 42.9977
RA_OF_ASC_NODE = 277.9266
ARG_OF_PERICENTER = 284.8337
MEAN_ANOMALY   = 75.2318

EPHEMERIS_TYPE = 0
CLASSIFICATION_TYPE = U
NORAD_CAT_ID   = 67846
ELEMENT_SET_NO = 999
REV_AT_EPOCH   = 445
BSTAR          = .12816541E-2
MEAN_MOTION_DOT = .279225E-2
MEAN_MOTION_DDOT = 0

CCSDS_OMM_VERS = 2.0
CREATION_DATE  = 
ORIGINATOR     = 

OBJECT_NAME    = STARLINK-36618
OBJECT_ID      = 2026-033AC
CENTER_NAME    = EARTH
REF_FRAME      = TEME
TIME_SYSTEM    = UTC
MEAN_ELEMENT_THEORY = SGP/SGP4

EPOCH          = 2026-03-08T14:00:01.999872
MEAN_MOTION    = 15.91481292
ECCENTRICITY   = .00016891
INCLINATION    = 42.9831
RA_OF_ASC_NODE = 275.9210
ARG_OF_PERICENTER = 273.3468
MEAN_ANOMALY   = 91.9013

EPHEMERIS_TYPE = 0
CLASSIFICATION_TYPE = U
NORAD_CAT_ID   = 67847
ELEMENT_SET_NO = 999
REV_AT_EPOCH   = 448
BSTAR          = .13894474E-3
MEAN_MOTION_DOT = .43983E-3
MEAN_MOTION_DDOT = .908571E-5

CCSDS_OMM_VERS = 2.0
CREATION_DATE  = 
ORIGINATOR     = 

OBJECT_NAME    = STARLINK-36660
OBJECT_ID      = 2026-033AD
CENTER_NAME    = EARTH
REF_FRAME      = TEME
TIME_SYSTEM    = UTC
MEAN_ELEMENT_THEORY = SGP/SGP4

EPOCH          = 2026-03-08T14:27:19.910592
MEAN_MOTION    = 15.82097892
ECCENTRICITY   = .00020364
INCLINATION    = 42.9976
RA_OF_ASC_NODE = 277.9191
ARG_OF_PERICENTER = 262.3213
MEAN_ANOMALY   = 97.7428

EPHEMERIS_TYPE = 0
CLASSIFICATION_TYPE = U
NORAD_CAT_ID   = 67848
ELEMENT_SET_NO = 999
REV_AT_EPOCH   = 445
BSTAR          = .10717827E-2
MEAN_MOTION_DOT = .232194E-2
MEAN_MOTION_DDOT = 0

CCSDS_OMM_VERS = 2.0
CREATION_DATE  = 
ORIGINATOR     = 

OBJECT_NAME    = STARLINK-36602
OBJECT_ID      = 2026-033AE
CENTER_NAME    = EARTH
REF_FRAME      = TEME
TIME_SYSTEM    = UTC
MEAN_ELEMENT_THEORY = SGP/SGP4

EPOCH          = 2026-03-08T14:26:15.211680
MEAN_MOTION    = 15.82072728
ECCENTRICITY   = .00016014
INCLINATION    = 42.9980
RA_OF_ASC_NODE = 277.9135
ARG_OF_PERICENTER = 288.5446
MEAN_ANOMALY   = 71.5251

EPHEMERIS_TYPE = 0
CLASSIFICATION_TYPE = U
NORAD_CAT_ID   = 67849
ELEMENT_SET_NO = 999
REV_AT_EPOCH   = 445
BSTAR          = .20420783E-2
MEAN_MOTION_DOT = .453995E-2
MEAN_MOTION_DDOT = 0

CCSDS_OMM_VERS = 2.0
CREATION_DATE  = 
ORIGINATOR     = 

OBJECT_NAME    = STARLINK-36840
OBJECT_ID      = 2026-034A
CENTER_NAME    = EARTH
REF_FRAME      = TEME
TIME_SYSTEM    = UTC
MEAN_ELEMENT_THEORY = SGP/SGP4

EPOCH          = 2026-03-08T14:14:53.953728
MEAN_MOTION    = 15.80972103
ECCENTRICITY   = .00008237
INCLINATION    = 53.1588
RA_OF_ASC_NODE = 216.8504
ARG_OF_PERICENTER = 65.9478
MEAN_ANOMALY   = 294.1631

EPHEMERIS_TYPE = 0
CLASSIFICATION_TYPE = U
NORAD_CAT_ID   = 67850
ELEMENT_SET_NO = 999
REV_AT_EPOCH   = 376
BSTAR          = .15697406E-2
MEAN_MOTION_DOT = .322443E-2
MEAN_MOTION_DDOT = 0

CCSDS_OMM_VERS = 2.0
CREATION_DATE  = 
ORIGINATOR     = 

OBJECT_NAME    = STARLINK-36348
OBJECT_ID      = 2026-034B
CENTER_NAME    = EARTH
REF_FRAME      = TEME
TIME_SYSTEM    = UTC
MEAN_ELEMENT_THEORY = SGP/SGP4

EPOCH          = 2026-03-08T14:13:49.105344
MEAN_MOTION    = 15.80958672
ECCENTRICITY   = .00014236
INCLINATION    = 53.1592
RA_OF_ASC_NODE = 216.8447
ARG_OF_PERICENTER = 49.7014
MEAN_ANOMALY   = 310.4133

EPHEMERIS_TYPE = 0
CLASSIFICATION_TYPE = U
NORAD_CAT_ID   = 67851
ELEMENT_SET_NO = 999
REV_AT_EPOCH   = 376
BSTAR          = .13206915E-2
MEAN_MOTION_DOT = .269316E-2
MEAN_MOTION_DDOT = 0

CCSDS_OMM_VERS = 2.0
CREATION_DATE  = 
ORIGINATOR     = 

OBJECT_NAME    = STARLINK-36276
OBJECT_ID      = 2026-034C
CENTER_NAME    = EARTH
REF_FRAME      = TEME
TIME_SYSTEM    = UTC
MEAN_ELEMENT_THEORY = SGP/SGP4

EPOCH          = 2026-03-08T14:12:44.218080
MEAN_MOTION    = 15.80982187
ECCENTRICITY   = .00010765
INCLINATION    = 53.1587
RA_OF_ASC_NODE = 216.8400
ARG_OF_PERICENTER = 48.6616
MEAN_ANOMALY   = 311.4499

EPHEMERIS_TYPE = 0
CLASSIFICATION_TYPE = U
NORAD_CAT_ID   = 67852
ELEMENT_SET_NO = 999
REV_AT_EPOCH   = 376
BSTAR          = .1553194E-2
MEAN_MOTION_DOT = .319054E-2
MEAN_MOTION_DDOT = 0

