STARLINK-36656          
1 67841U 26033W   26067.60681085  .00453774  00000+0  20381-2 0  9990
2 67841  42.9974 277.9575 0001469 271.4432  88.6271 15.82104424  4454
STARLINK-36653          
1 67842U 26033X   26067.60606233  .00219400  00000+0  10156-2 0  9998
2 67842  42.9977 277.9507 0002226 259.0808 100.9813 15.82070622  4456
STARLINK-36589          
1 67843U 26033Y   26067.60531095  .00335636  00000+0  15272-2 0  9996
2 67843  42.9974 277.9452 0002080 280.3045  79.7592 15.82131807  4451
STARLINK-36598          
1 67844U 26033Z   26067.60456209  .00295308  00000+0  13531-2 0  9997
2 67844  42.9978 277.9386 0001938 276.5483  83.5168 15.82087642  4455
STARLINK-36606          
1 67845U 26033AA  26067.60381467  .00278689  00000+0  12789-2 0  9998
2 67845  42.9975 277.9323 0002238 292.8415  67.2220 15.82098883  4451
STARLINK-36658          
1 67846U 26033AB  26067.60306522  .00279225  00000+0  12817-2 0  9997
2 67846  42.9977 277.9266 0001955 284.8337  75.2318 15.82092766  4450
STARLINK-36618          
1 67847U 26033AC  26067.58335648  .00043983  90857-5  13894-3 0  9998
2 67847  42.9831 275.9210 0001689 273.3468  91.9013 15.91481292  4485
STARLINK-36660          
1 67848U 26033AD  26067.60231378  .00232194  00000+0  10718-2 0  9997
2 67848  42.9976 277.9191 0002036 262.3213  97.7428 15.82097892  4459
STARLINK-36602          
1 67849U 26033AE  26067.60156495  .00453995  00000+0  20421-2 0  9990
2 67849  42.9980 277.9135 0001601 288.5446  71.5251 15.82072728  4453
STARLINK-36840          
1 67850U 26034A   26067.59368002  .00322443  00000+0  15697-2 0  9992
2 67850  53.1588 216.8504 0000823  65.9478 294.1631 15.80972103  3764
STARLINK-36348          
1 67851U 26034B   26067.59292946  .00269316  00000+0  13207-2 0  9990
2 67851  53.1592 216.8447 0001423  49.7014 310.4133 15.80958672  3763
STARLINK-36276          
1 67852U 26034C   26067.59217845  .00319054  00000+0  15532-2 0  9994
2 67852  53.1587 216.8400 0001076  48.6616 311.4499 15.80982187  3761
